{"type": "FeatureCollection", "features": [ {"type": "Feature", "properties": {"norad_id": 35744, "name": "IRIDIUM 33 DEB", "group": "iridium-33-debris", "lat": 64.85703145858203, "lon": 141.37675202529468, "alt_km": 656.7368177860162, "timestamp": "2025-12-04T07:39:36.517618+00:00", "meta": {"OBJECT_NAME": "IRIDIUM 33 DEB", "OBJECT_ID": "1997-051RX", "EPOCH": "2025-12-03T16:26:33.199008", "MEAN_MOTION": 14.70784036, "ECCENTRICITY": 0.00192992, "INCLINATION": 86.3279, "RA_OF_ASC_NODE": 329.5276, "ARG_OF_PERICENTER": 226.2399, "MEAN_ANOMALY": 133.722, "EPHEMERIS_TYPE": 0, "CLASSIFICATION_TYPE": "U", "NORAD_CAT_ID": 35744, "ELEMENT_SET_NO": 999, "REV_AT_EPOCH": 87198, "BSTAR": 0.0017711667, "MEAN_MOTION_DOT": 0.0001087, "MEAN_MOTION_DDOT": 0}, "tle": {"line1": "1 35744U 97051RX  25337.68510647  .00010870  00000+0  17712-2 0  9997", "line2": "2 35744  86.3279 329.5276 0019299 226.2399 133.7220 14.70784036871988"}}, "geometry": {"type": "Point", "coordinates": [141.37675202529468, 64.85703145858203]}}, {"type": "Feature", "properties": {"norad_id": 35797, "name": "IRIDIUM 33 DEB", "group": "iridium-33-debris", "lat": -29.598306572231056, "lon": 155.92815469539678, "alt_km": 620.9393268838712, "timestamp": "2025-12-04T07:39:36.517628+00:00", "meta": {"OBJECT_NAME": "IRIDIUM 33 DEB", "OBJECT_ID": "1997-051SF", "EPOCH": "2025-12-03T06:24:58.106016", "MEAN_MOTION": 14.82331102, "ECCENTRICITY": 0.0011684, "INCLINATION": 86.3357, "RA_OF_ASC_NODE": 334.3248, "ARG_OF_PERICENTER": 181.5296, "MEAN_ANOMALY": 178.5893, "EPHEMERIS_TYPE": 0, "CLASSIFICATION_TYPE": "U", "NORAD_CAT_ID": 35797, "ELEMENT_SET_NO": 999, "REV_AT_EPOCH": 87200, "BSTAR": 0.0022863, "MEAN_MOTION_DOT": 0.00018353, "MEAN_MOTION_DDOT": 0}, "tle": {"line1": "1 35797U 97051SF  25337.26733919  .00018353  00000+0  22863-2 0  9995", "line2": "2 35797  86.3357 334.3248 0011684 181.5296 178.5893 14.82331102872007"}}, "geometry": {"type": "Point", "coordinates": [155.92815469539678, -29.598306572231056]}}, {"type": "Feature", "properties": {"norad_id": 35806, "name": "IRIDIUM 33 DEB", "group": "iridium-33-debris", "lat": -21.000108821900472, "lon": -154.25596063522028, "alt_km": 710.5658155575084, "timestamp": "2025-12-04T07:39:36.517638+00:00", "meta": {"OBJECT_NAME": "IRIDIUM 33 DEB", "OBJECT_ID": "1997-051SQ", "EPOCH": "2025-11-21T22:04:29.472384", "MEAN_MOTION": 14.57052239, "ECCENTRICITY": 0.00159672, "INCLINATION": 86.3448, "RA_OF_ASC_NODE": 29.7928, "ARG_OF_PERICENTER": 137.8294, "MEAN_ANOMALY": 222.4146, "EPHEMERIS_TYPE": 0, "CLASSIFICATION_TYPE": "U", "NORAD_CAT_ID": 35806, "ELEMENT_SET_NO": 999, "REV_AT_EPOCH": 86021, "BSTAR": 0.0011489261, "MEAN_MOTION_DOT": 5.199e-05, "MEAN_MOTION_DDOT": 0}, "tle": {"line1": "1 35806U 97051SQ  25325.91978556  .00005199  00000+0  11489-2 0  9999", "line2": "2 35806  86.3448  29.7928 0015967 137.8294 222.4146 14.57052239860212"}}, "geometry": {"type": "Point", "coordinates": [-154.25596063522028, -21.000108821900472]}}, {"type": "Feature", "properties": {"norad_id": 35809, "name": "IRIDIUM 33 DEB", "group": "iridium-33-debris", "lat": 12.325529424880724, "lon": -20.01248777655649, "alt_km": 645.4290729568929, "timestamp": "2025-12-04T07:39:36.517646+00:00", "meta": {"OBJECT_NAME": "IRIDIUM 33 DEB", "OBJECT_ID": "1997-051ST", "EPOCH": "2025-12-01T17:44:51.390816", "MEAN_MOTION": 14.75313912, "ECCENTRICITY": 0.00099663, "INCLINATION": 86.3281, "RA_OF_ASC_NODE": 340.3571, "ARG_OF_PERICENTER": 290.7283, "MEAN_ANOMALY": 69.2867, "EPHEMERIS_TYPE": 0, "CLASSIFICATION_TYPE": "U", "NORAD_CAT_ID": 35809, "ELEMENT_SET_NO": 999, "REV_AT_EPOCH": 86645, "BSTAR": 0.0015973304, "MEAN_MOTION_DOT": 0.00010859, "MEAN_MOTION_DDOT": 0}, "tle": {"line1": "1 35809U 97051ST  25335.73948369  .00010859  00000+0  15973-2 0  9993", "line2": "2 35809  86.3281 340.3571 0009966 290.7283  69.2867 14.75313912866452"}}, "geometry": {"type": "Point", "coordinates": [-20.01248777655649, 12.325529424880724]}}, {"type": "Feature", "properties": {"norad_id": 35846, "name": "IRIDIUM 33 DEB", "group": "iridium-33-debris", "lat": 55.88805052605936, "lon": 67.80366115391463, "alt_km": 752.4447352783309, "timestamp": "2025-12-04T07:39:36.517656+00:00", "meta": {"OBJECT_NAME": "IRIDIUM 33 DEB", "OBJECT_ID": "1997-051SW", "EPOCH": "2025-11-15T14:04:07.017312", "MEAN_MOTION": 14.42992821, "ECCENTRICITY": 0.00163082, "INCLINATION": 86.3745, "RA_OF_ASC_NODE": 70.4244, "ARG_OF_PERICENTER": 263.1259, "MEAN_ANOMALY": 96.8086, "EPHEMERIS_TYPE": 0, "CLASSIFICATION_TYPE": "U", "NORAD_CAT_ID": 35846, "ELEMENT_SET_NO": 999, "REV_AT_EPOCH": 70937, "BSTAR": 0.0011049939, "MEAN_MOTION_DOT": 3.722e-05, "MEAN_MOTION_DDOT": 0}, "tle": {"line1": "1 35846U 97051SW  25319.58619233  .00003722  00000+0  11050-2 0  9997", "line2": "2 35846  86.3745  70.4244 0016308 263.1259  96.8086 14.42992821709373"}}, "geometry": {"type": "Point", "coordinates": [67.80366115391463, 55.88805052605936]}}, {"type": "Feature", "properties": {"norad_id": 35848, "name": "IRIDIUM 33 DEB", "group": "iridium-33-debris", "lat": -56.04026693856504, "lon": -154.71271720335739, "alt_km": 637.101796278942, "timestamp": "2025-12-04T07:39:36.517666+00:00", "meta": {"OBJECT_NAME": "IRIDIUM 33 DEB", "OBJECT_ID": "1997-051SY", "EPOCH": "2025-12-01T10:21:45.439488", "MEAN_MOTION": 14.7824162, "ECCENTRICITY": 0.00067103, "INCLINATION": 86.3925, "RA_OF_ASC_NODE": 21.2088, "ARG_OF_PERICENTER": 240.9704, "MEAN_ANOMALY": 119.0844, "EPHEMERIS_TYPE": 0, "CLASSIFICATION_TYPE": "U", "NORAD_CAT_ID": 35848, "ELEMENT_SET_NO": 999, "REV_AT_EPOCH": 66523, "BSTAR": 0.0018930249, "MEAN_MOTION_DOT": 0.00013775, "MEAN_MOTION_DDOT": 0}, "tle": {"line1": "1 35848U 97051SY  25335.43177592  .00013775  00000+0  18930-2 0  9991", "line2": "2 35848  86.3925  21.2088 0006710 240.9704 119.0844 14.78241620665238"}}, "geometry": {"type": "Point", "coordinates": [-154.71271720335739, -56.04026693856504]}}, {"type": "Feature", "properties": {"norad_id": 35850, "name": "IRIDIUM 33 DEB", "group": "iridium-33-debris", "lat": -15.971032411552182, "lon": 169.1241866755876, "alt_km": 633.9240817758964, "timestamp": "2025-12-04T07:39:36.517675+00:00", "meta": {"OBJECT_NAME": "IRIDIUM 33 DEB", "OBJECT_ID": "1997-051TA", "EPOCH": "2025-12-02T07:40:10.229376", "MEAN_MOTION": 14.7843662, "ECCENTRICITY": 0.0007989, "INCLINATION": 86.3497, "RA_OF_ASC_NODE": 348.9861, "ARG_OF_PERICENTER": 227.4621, "MEAN_ANOMALY": 132.5925, "EPHEMERIS_TYPE": 0, "CLASSIFICATION_TYPE": "U", "NORAD_CAT_ID": 35850, "ELEMENT_SET_NO": 999, "REV_AT_EPOCH": 71203, "BSTAR": 0.0019125, "MEAN_MOTION_DOT": 0.00013983, "MEAN_MOTION_DDOT": 0}, "tle": {"line1": "1 35850U 97051TA  25336.31956284  .00013983  00000+0  19125-2 0  9993", "line2": "2 35850  86.3497 348.9861 0007989 227.4621 132.5925 14.78436620712037"}}, "geometry": {"type": "Point", "coordinates": [169.1241866755876, -15.971032411552182]}}, {"type": "Feature", "properties": {"norad_id": 35915, "name": "IRIDIUM 33 DEB", "group": "iridium-33-debris", "lat": 77.8042883203212, "lon": 4.015211513211235, "alt_km": 626.378593184827, "timestamp": "2025-12-04T07:39:36.517685+00:00", "meta": {"OBJECT_NAME": "IRIDIUM 33 DEB", "OBJECT_ID": "1997-051TY", "EPOCH": "2025-12-03T18:19:42.417696", "MEAN_MOTION": 14.80347774, "ECCENTRICITY": 0.00098177, "INCLINATION": 86.3435, "RA_OF_ASC_NODE": 347.0587, "ARG_OF_PERICENTER": 222.269, "MEAN_ANOMALY": 137.7775, "EPHEMERIS_TYPE": 0, "CLASSIFICATION_TYPE": "U", "NORAD_CAT_ID": 35915, "ELEMENT_SET_NO": 999, "REV_AT_EPOCH": 7953, "BSTAR": 0.002591589, "MEAN_MOTION_DOT": 0.00019836, "MEAN_MOTION_DDOT": 0}, "tle": {"line1": "1 35915U 97051TY  25337.76368539  .00019836  00000+0  25916-2 0  9993", "line2": "2 35915  86.3435 347.0587 0009817 222.2690 137.7775 14.80347774 79532"}}, "geometry": {"type": "Point", "coordinates": [4.015211513211235, 77.8042883203212]}}, {"type": "Feature", "properties": {"norad_id": 35918, "name": "IRIDIUM 33 DEB", "group": "iridium-33-debris", "lat": 42.34467673368149, "lon": 82.71765158915088, "alt_km": 735.6137855592751, "timestamp": "2025-12-04T07:39:36.517694+00:00", "meta": {"OBJECT_NAME": "IRIDIUM 33 DEB", "OBJECT_ID": "1997-051UB", "EPOCH": "2025-11-30T01:41:55.281408", "MEAN_MOTION": 14.51050885, "ECCENTRICITY": 0.00264066, "INCLINATION": 86.4001, "RA_OF_ASC_NODE": 81.2516, "ARG_OF_PERICENTER": 211.3482, "MEAN_ANOMALY": 332.4953, "EPHEMERIS_TYPE": 0, "CLASSIFICATION_TYPE": "U", "NORAD_CAT_ID": 35918, "ELEMENT_SET_NO": 999, "REV_AT_EPOCH": 85023, "BSTAR": 0.0014523463, "MEAN_MOTION_DOT": 5.795e-05, "MEAN_MOTION_DDOT": 0}, "tle": {"line1": "1 35918U 97051UB  25334.07077872  .00005795  00000+0  14523-2 0  9995", "line2": "2 35918  86.4001  81.2516 0026406 211.3482 332.4953 14.51050885850233"}}, "geometry": {"type": "Point", "coordinates": [82.71765158915088, 42.34467673368149]}}, {"type": "Feature", "properties": {"norad_id": 35929, "name": "IRIDIUM 33 DEB", "group": "iridium-33-debris", "lat": 56.008583689730024, "lon": -37.92397003703765, "alt_km": 543.5973201384704, "timestamp": "2025-12-04T07:39:36.517705+00:00", "meta": {"OBJECT_NAME": "IRIDIUM 33 DEB", "OBJECT_ID": "1997-051UN", "EPOCH": "2025-12-02T05:49:26.497920", "MEAN_MOTION": 15.01302222, "ECCENTRICITY": 0.0019551, "INCLINATION": 86.3366, "RA_OF_ASC_NODE": 317.6054, "ARG_OF_PERICENTER": 65.7136, "MEAN_ANOMALY": 294.6136, "EPHEMERIS_TYPE": 0, "CLASSIFICATION_TYPE": "U", "NORAD_CAT_ID": 35929, "ELEMENT_SET_NO": 999, "REV_AT_EPOCH": 87622, "BSTAR": 0.0029859, "MEAN_MOTION_DOT": 0.00038744, "MEAN_MOTION_DDOT": 0}, "tle": {"line1": "1 35929U 97051UN  25336.24266780  .00038744  00000+0  29859-2 0  9994", "line2": "2 35929  86.3366 317.6054 0019551  65.7136 294.6136 15.01302222876221"}}, "geometry": {"type": "Point", "coordinates": [-37.92397003703765, 56.008583689730024]}}]}